{"type": "FeatureCollection", "features": [ {"type": "Feature", "properties": {"norad_id": 30224, "name": "FENGYUN 1C DEB", "group": "fengyun-1c-debris", "lat": -54.39171989067427, "lon": -163.8584227377898, "alt_km": 944.8880893632713, "timestamp": "2025-12-16T19:34:24.542074+00:00", "meta": {"OBJECT_NAME": "FENGYUN 1C DEB", "OBJECT_ID": "1999-025WH", "EPOCH": "2025-12-15T20:51:21.975840", "MEAN_MOTION": 13.89868879, "ECCENTRICITY": 0.0111071, "INCLINATION": 99.4838, "RA_OF_ASC_NODE": 28.6751, "ARG_OF_PERICENTER": 334.8736, "MEAN_ANOMALY": 208.2418, "EPHEMERIS_TYPE": 0, "CLASSIFICATION_TYPE": "U", "NORAD_CAT_ID": 30224, "ELEMENT_SET_NO": 999, "REV_AT_EPOCH": 95784, "BSTAR": 0.0003574363, "MEAN_MOTION_DOT": 4.15e-06, "MEAN_MOTION_DDOT": 0}, "tle": {"line1": "1 30224U 99025WH  25349.86900435  .00000415  00000+0  35744-3 0  9999", "line2": "2 30224  99.4838  28.6751 0111071 334.8736 208.2418 13.89868879957843"}}, "geometry": {"type": "Point", "coordinates": [-163.8584227377898, -54.39171989067427]}}, {"type": "Feature", "properties": {"norad_id": 30225, "name": "FENGYUN 1C DEB", "group": "fengyun-1c-debris", "lat": 55.337701459994086, "lon": 4.735536413918278, "alt_km": 767.3069846700173, "timestamp": "2025-12-16T19:34:24.542084+00:00", "meta": {"OBJECT_NAME": "FENGYUN 1C DEB", "OBJECT_ID": "1999-025WJ", "EPOCH": "2025-12-15T07:45:02.867040", "MEAN_MOTION": 14.15185895, "ECCENTRICITY": 0.01004583, "INCLINATION": 98.6599, "RA_OF_ASC_NODE": 16.0192, "ARG_OF_PERICENTER": 78.6263, "MEAN_ANOMALY": 297.9984, "EPHEMERIS_TYPE": 0, "CLASSIFICATION_TYPE": "U", "NORAD_CAT_ID": 30225, "ELEMENT_SET_NO": 999, "REV_AT_EPOCH": 97573, "BSTAR": 0.00017543185, "MEAN_MOTION_DOT": 3.16e-06, "MEAN_MOTION_DDOT": 0}, "tle": {"line1": "1 30225U 99025WJ  25349.32294985  .00000316  00000+0  17543-3 0  9994", "line2": "2 30225  98.6599  16.0192 0100458  78.6263 297.9984 14.15185895975735"}}, "geometry": {"type": "Point", "coordinates": [4.735536413918278, 55.337701459994086]}}, {"type": "Feature", "properties": {"norad_id": 30229, "name": "FENGYUN 1C DEB", "group": "fengyun-1c-debris", "lat": -59.063717956467265, "lon": -144.61847699682045, "alt_km": 720.5959206354837, "timestamp": "2025-12-16T19:34:24.542095+00:00", "meta": {"OBJECT_NAME": "FENGYUN 1C DEB", "OBJECT_ID": "1999-025WN", "EPOCH": "2025-12-15T09:53:01.154688", "MEAN_MOTION": 14.60597943, "ECCENTRICITY": 0.00373162, "INCLINATION": 99.0631, "RA_OF_ASC_NODE": 49.2924, "ARG_OF_PERICENTER": 32.3666, "MEAN_ANOMALY": 31.232, "EPHEMERIS_TYPE": 0, "CLASSIFICATION_TYPE": "U", "NORAD_CAT_ID": 30229, "ELEMENT_SET_NO": 999, "REV_AT_EPOCH": 98965, "BSTAR": 0.0011231758, "MEAN_MOTION_DOT": 5.461e-05, "MEAN_MOTION_DDOT": 0}, "tle": {"line1": "1 30229U 99025WN  25349.41181892  .00005461  00000+0  11232-2 0  9994", "line2": "2 30229  99.0631  49.2924 0037316  32.3666  31.2320 14.60597943989658"}}, "geometry": {"type": "Point", "coordinates": [-144.61847699682045, -59.063717956467265]}}, {"type": "Feature", "properties": {"norad_id": 30231, "name": "FENGYUN 1C DEB", "group": "fengyun-1c-debris", "lat": 67.65370128634117, "lon": -122.35055319000567, "alt_km": 850.5776603863906, "timestamp": "2025-12-16T19:34:24.542105+00:00", "meta": {"OBJECT_NAME": "FENGYUN 1C DEB", "OBJECT_ID": "1999-025WQ", "EPOCH": "2025-12-15T21:45:36.471168", "MEAN_MOTION": 14.11651676, "ECCENTRICITY": 0.01282747, "INCLINATION": 98.8048, "RA_OF_ASC_NODE": 34.6069, "ARG_OF_PERICENTER": 20.2722, "MEAN_ANOMALY": 152.4844, "EPHEMERIS_TYPE": 0, "CLASSIFICATION_TYPE": "U", "NORAD_CAT_ID": 30231, "ELEMENT_SET_NO": 999, "REV_AT_EPOCH": 97064, "BSTAR": 0.00056843074, "MEAN_MOTION_DOT": 1.074e-05, "MEAN_MOTION_DDOT": 0}, "tle": {"line1": "1 30231U 99025WQ  25349.90667212  .00001074  00000+0  56843-3 0  9990", "line2": "2 30231  98.8048  34.6069 0128274  20.2722 152.4844 14.11651676970647"}}, "geometry": {"type": "Point", "coordinates": [-122.35055319000567, 67.65370128634117]}}, {"type": "Feature", "properties": {"norad_id": 30232, "name": "FENGYUN 1C DEB", "group": "fengyun-1c-debris", "lat": 80.9201364971195, "lon": 84.41629114611926, "alt_km": 714.1275938434273, "timestamp": "2025-12-16T19:34:24.542115+00:00", "meta": {"OBJECT_NAME": "FENGYUN 1C DEB", "OBJECT_ID": "1999-025WR", "EPOCH": "2025-12-15T12:06:59.211936", "MEAN_MOTION": 14.63613816, "ECCENTRICITY": 0.0135794, "INCLINATION": 98.6935, "RA_OF_ASC_NODE": 189.8167, "ARG_OF_PERICENTER": 341.2495, "MEAN_ANOMALY": 47.8403, "EPHEMERIS_TYPE": 0, "CLASSIFICATION_TYPE": "U", "NORAD_CAT_ID": 30232, "ELEMENT_SET_NO": 999, "REV_AT_EPOCH": 99792, "BSTAR": 0.0004779379, "MEAN_MOTION_DOT": 2.777e-05, "MEAN_MOTION_DDOT": 0}, "tle": {"line1": "1 30232U 99025WR  25349.50485199  .00002777  00000+0  47794-3 0  9995", "line2": "2 30232  98.6935 189.8167 0135794 341.2495  47.8403 14.63613816997920"}}, "geometry": {"type": "Point", "coordinates": [84.41629114611926, 80.9201364971195]}}, {"type": "Feature", "properties": {"norad_id": 30234, "name": "FENGYUN 1C DEB", "group": "fengyun-1c-debris", "lat": 27.529099251393472, "lon": -3.068166708129376, "alt_km": 795.3681023004974, "timestamp": "2025-12-16T19:34:24.542125+00:00", "meta": {"OBJECT_NAME": "FENGYUN 1C DEB", "OBJECT_ID": "1999-025WT", "EPOCH": "2025-12-15T20:17:27.153888", "MEAN_MOTION": 14.16868432, "ECCENTRICITY": 0.00669738, "INCLINATION": 98.6338, "RA_OF_ASC_NODE": 0.5323, "ARG_OF_PERICENTER": 66.3707, "MEAN_ANOMALY": 56.5714, "EPHEMERIS_TYPE": 0, "CLASSIFICATION_TYPE": "U", "NORAD_CAT_ID": 30234, "ELEMENT_SET_NO": 999, "REV_AT_EPOCH": 97500, "BSTAR": 0.00031755232, "MEAN_MOTION_DOT": 6.09e-06, "MEAN_MOTION_DDOT": 0}, "tle": {"line1": "1 30234U 99025WT  25349.84545317  .00000609  00000+0  31755-3 0  9995", "line2": "2 30234  98.6338   0.5323 0066973  66.3707  56.5714 14.16868432975006"}}, "geometry": {"type": "Point", "coordinates": [-3.068166708129376, 27.529099251393472]}}, {"type": "Feature", "properties": {"norad_id": 30235, "name": "FENGYUN 1C DEB", "group": "fengyun-1c-debris", "lat": -50.30320234150105, "lon": 178.17352536202517, "alt_km": 759.5009759486502, "timestamp": "2025-12-16T19:34:24.542135+00:00", "meta": {"OBJECT_NAME": "FENGYUN 1C DEB", "OBJECT_ID": "1999-025WU", "EPOCH": "2025-12-15T19:28:25.055040", "MEAN_MOTION": 14.08782277, "ECCENTRICITY": 0.01534811, "INCLINATION": 98.7495, "RA_OF_ASC_NODE": 7.89, "ARG_OF_PERICENTER": 229.8216, "MEAN_ANOMALY": 311.2162, "EPHEMERIS_TYPE": 0, "CLASSIFICATION_TYPE": "U", "NORAD_CAT_ID": 30235, "ELEMENT_SET_NO": 999, "REV_AT_EPOCH": 96936, "BSTAR": 0.00040010135, "MEAN_MOTION_DOT": 7.26e-06, "MEAN_MOTION_DDOT": 0}, "tle": {"line1": "1 30235U 99025WU  25349.81140110  .00000726  00000+0  40010-3 0  9999", "line2": "2 30235  98.7495   7.8900 0153481 229.8216 311.2162 14.08782277969368"}}, "geometry": {"type": "Point", "coordinates": [178.17352536202517, -50.30320234150105]}}, {"type": "Feature", "properties": {"norad_id": 30237, "name": "FENGYUN 1C DEB", "group": "fengyun-1c-debris", "lat": -79.75448822099082, "lon": 152.96992495051194, "alt_km": 753.0423050914251, "timestamp": "2025-12-16T19:34:24.542145+00:00", "meta": {"OBJECT_NAME": "FENGYUN 1C DEB", "OBJECT_ID": "1999-025WW", "EPOCH": "2025-12-15T05:46:29.105760", "MEAN_MOTION": 14.409305, "ECCENTRICITY": 0.00141636, "INCLINATION": 98.8262, "RA_OF_ASC_NODE": 92.0697, "ARG_OF_PERICENTER": 297.1568, "MEAN_ANOMALY": 92.9486, "EPHEMERIS_TYPE": 0, "CLASSIFICATION_TYPE": "U", "NORAD_CAT_ID": 30237, "ELEMENT_SET_NO": 999, "REV_AT_EPOCH": 97734, "BSTAR": 0.0015511978, "MEAN_MOTION_DOT": 4.941e-05, "MEAN_MOTION_DDOT": 0}, "tle": {"line1": "1 30237U 99025WW  25349.24061465  .00004941  00000+0  15512-2 0  9994", "line2": "2 30237  98.8262  92.0697 0014163 297.1568  92.9486 14.40930500977342"}}, "geometry": {"type": "Point", "coordinates": [152.96992495051194, -79.75448822099082]}}, {"type": "Feature", "properties": {"norad_id": 30239, "name": "FENGYUN 1C DEB", "group": "fengyun-1c-debris", "lat": 1.2814235181338454, "lon": 137.73095926588815, "alt_km": 910.3963393625918, "timestamp": "2025-12-16T19:34:24.542156+00:00", "meta": {"OBJECT_NAME": "FENGYUN 1C DEB", "OBJECT_ID": "1999-025WY", "EPOCH": "2025-12-13T15:37:48.304128", "MEAN_MOTION": 11.38129705, "ECCENTRICITY": 0.13473881, "INCLINATION": 99.5792, "RA_OF_ASC_NODE": 135.8284, "ARG_OF_PERICENTER": 28.8583, "MEAN_ANOMALY": 338.0631, "EPHEMERIS_TYPE": 0, "CLASSIFICATION_TYPE": "U", "NORAD_CAT_ID": 30239, "ELEMENT_SET_NO": 999, "REV_AT_EPOCH": 54545, "BSTAR": 0.019482233, "MEAN_MOTION_DOT": 6.493e-05, "MEAN_MOTION_DDOT": 0}, "tle": {"line1": "1 30239U 99025WY  25347.65125352  .00006493  00000+0  19482-1 0  9998", "line2": "2 30239  99.5792 135.8284 1347388  28.8583 338.0631 11.38129705545453"}}, "geometry": {"type": "Point", "coordinates": [137.73095926588815, 1.2814235181338454]}}, {"type": "Feature", "properties": {"norad_id": 30241, "name": "FENGYUN 1C DEB", "group": "fengyun-1c-debris", "lat": 71.5609807060864, "lon": -27.33440220376089, "alt_km": 767.7647486281485, "timestamp": "2025-12-16T19:34:24.542166+00:00", "meta": {"OBJECT_NAME": "FENGYUN 1C DEB", "OBJECT_ID": "1999-025XA", "EPOCH": "2025-12-15T21:31:57.247104", "MEAN_MOTION": 14.09550258, "ECCENTRICITY": 0.01467649, "INCLINATION": 99.1487, "RA_OF_ASC_NODE": 122.8295, "ARG_OF_PERICENTER": 72.3266, "MEAN_ANOMALY": 55.131, "EPHEMERIS_TYPE": 0, "CLASSIFICATION_TYPE": "U", "NORAD_CAT_ID": 30241, "ELEMENT_SET_NO": 999, "REV_AT_EPOCH": 96956, "BSTAR": 0.00030324872, "MEAN_MOTION_DOT": 5.41e-06, "MEAN_MOTION_DDOT": 0}, "tle": {"line1": "1 30241U 99025XA  25349.89719036  .00000541  00000+0  30325-3 0  9996", "line2": "2 30241  99.1487 122.8295 0146764  72.3266  55.1310 14.09550258969562"}}, "geometry": {"type": "Point", "coordinates": [-27.33440220376089, 71.5609807060864]}}]}